IRIDIUM 154             
1 43574U 18061F   26164.25479562  .00000232  00000+0  75886-4 0  9992
2 43574  86.3967  58.4511 0002104  86.9099 273.2337 14.34219107412844
IRIDIUM 163             
1 43575U 18061G   26164.23576273  .00000140  00000+0  42778-4 0  9990
2 43575  86.3963  58.3746 0002270  83.4543 276.6911 14.34216730412811
IRIDIUM 156             
1 43576U 18061H   26164.21039812  .00000244  00000+0  80089-4 0  9994
2 43576  86.3962  58.3923 0002089  81.4741 278.6691 14.34217792412809
IRIDIUM 164             
1 43577U 18061J   26164.26113979  .00000068  00000+0  17116-4 0  9992
2 43577  86.3966  58.4115 0002104  88.7566 271.3871 14.34217705412850
IRIDIUM 159             
1 43578U 18061K   26164.22942663  .00000170  00000+0  53469-4 0  9994
2 43578  86.3962  58.3616 0002289  84.0317 276.1140 14.34217957412816
IRIDIUM 180             
1 43922U 19002A   26164.22892281 -.00000020  00000+0 -14259-4 0  9993
2 43922  86.3967 355.2526 0002153  89.0634 271.0809 14.34217347388428
IRIDIUM 176             
1 43923U 19002B   26164.14887224  .00000728  00000+0  11159-3 0  9994
2 43923  86.6091 355.2303 0002245  91.8930 268.2544 14.72262149398657
IRIDIUM 168             
1 43924U 19002C   26164.08304311  .00000065  00000+0  16266-4 0  9998
2 43924  86.3973 355.3909 0002163  88.9780 271.1663 14.34218055388385
IRIDIUM 173             
1 43925U 19002D   26164.27966412  .00000035  00000+0  53224-5 0  9999
2 43925  86.3969 355.1975 0002232  86.9230 273.2221 14.34217242388398
IRIDIUM 169             
1 43926U 19002E   26164.14845320  .00000261  00000+0  78886-4 0  9991
2 43926  86.4228  26.8821 0002005  71.3084 288.8332 14.38607239389640
IRIDIUM 172             
1 43927U 19002F   26164.27332029  .00000122  00000+0  36591-4 0  9996
2 43927  86.3969 355.2083 0002254  89.1819 270.9635 14.34217280388400
IRIDIUM 175             
1 43928U 19002G   26163.90900238  .00000280  00000+0  76691-4 0  9999
2 43928  86.4509 292.3095 0001931 194.4768 165.6378 14.43610515398368
IRIDIUM 171             
1 43929U 19002H   26164.04498696 -.00000201  00000+0 -78829-4 0  9996
2 43929  86.3975 355.6095 0001906  87.6098 272.5316 14.34216604388369
IRIDIUM 170             
1 43930U 19002J   26164.29098871  .00000728  00000+0  11150-3 0  9991
2 43930  86.6091 355.1733 0002359  88.5108 271.6379 14.72262785398680
IRIDIUM 167             
1 43931U 19002K   26164.24794994  .00000033  00000+0  47875-5 0  9990
2 43931  86.3970 355.2411 0001860  88.9355 271.2054 14.34217758388393
IRIDIUM 181             
1 56726U 23068S   26164.22401006  .00000289  00000+0  79931-4 0  9990
2 56726  86.4501  58.4473 0002341  89.4429 270.7040 14.43312669161860
IRIDIUM 177             
1 56727U 23068T   26164.19887398  .00001021  00000+0  13086-3 0  9992
2 56727  86.1959 330.6861 0002402  87.4263 272.7233 14.80223389165774
IRIDIUM 174             
1 56728U 23068U   26164.27864235  .00000743  00000+0  11392-3 0  9995
2 56728  86.6098 355.3255 0002514  84.5437 275.6067 14.72258946165449
IRIDIUM 178             
1 56729U 23068V   26164.18800563  .00000916  00000+0  11716-3 0  9992
2 56729  86.6541  27.0317 0002666  86.9472 273.2054 14.80227461165771
IRIDIUM 179             
1 56730U 23068W   26164.11500941  .00000904  00000+0  11548-3 0  9994
2 56730  86.6785  36.0309 0002442  90.3938 269.7564 14.80231413165769
