OBJECT_NAME,OBJECT_ID,EPOCH,MEAN_MOTION,ECCENTRICITY,INCLINATION,RA_OF_ASC_NODE,ARG_OF_PERICENTER,MEAN_ANOMALY,EPHEMERIS_TYPE,CLASSIFICATION_TYPE,NORAD_CAT_ID,ELEMENT_SET_NO,REV_AT_EPOCH,BSTAR,MEAN_MOTION_DOT,MEAN_MOTION_DDOT
IRIDIUM 154,2018-061F,2026-06-13T06:06:54.341568,14.34219107,.00021042,86.3967,58.4511,86.9099,273.2337,0,U,43574,999,41284,.75885667E-4,.232E-5,0
IRIDIUM 163,2018-061G,2026-06-13T05:39:29.899872,14.34216730,.00022709,86.3963,58.3746,83.4543,276.6911,0,U,43575,999,41281,.4277812E-4,.14E-5,0
IRIDIUM 156,2018-061H,2026-06-13T05:02:58.397568,14.34217792,.00020896,86.3962,58.3923,81.4741,278.6691,0,U,43576,999,41280,.80088525E-4,.244E-5,0
IRIDIUM 164,2018-061J,2026-06-13T06:16:02.477856,14.34217705,.00021041,86.3966,58.4115,88.7566,271.3871,0,U,43577,999,41285,.17115809E-4,.68E-6,0
IRIDIUM 159,2018-061K,2026-06-13T05:30:22.460832,14.34217957,.00022899,86.3962,58.3616,84.0317,276.1140,0,U,43578,999,41281,.53469095E-4,.17E-5,0
IRIDIUM 180,2019-002A,2026-06-13T05:29:38.930784,14.34217347,.00021537,86.3967,355.2526,89.0634,271.0809,0,U,43922,999,38842,-.14258717E-4,-.2E-6,0
IRIDIUM 176,2019-002B,2026-06-13T03:34:22.561536,14.72262149,.00022455,86.6091,355.2303,91.8930,268.2544,0,U,43923,999,39865,.11159351E-3,.728E-5,0
IRIDIUM 168,2019-002C,2026-06-13T01:59:34.924704,14.34218055,.00021635,86.3973,355.3909,88.9780,271.1663,0,U,43924,999,38838,.16265565E-4,.65E-6,0
IRIDIUM 173,2019-002D,2026-06-13T06:42:42.979968,14.34217242,.0002232,86.3969,355.1975,86.9230,273.2221,0,U,43925,999,38839,.5322447E-5,.35E-6,0
IRIDIUM 169,2019-002E,2026-06-13T03:33:46.356480,14.38607239,.00020055,86.4228,26.8821,71.3084,288.8332,0,U,43926,999,38964,.78886414E-4,.261E-5,0
IRIDIUM 172,2019-002F,2026-06-13T06:33:34.873056,14.34217280,.00022547,86.3969,355.2083,89.1819,270.9635,0,U,43927,999,38840,.36591167E-4,.122E-5,0
IRIDIUM 175,2019-002G,2026-06-12T21:48:57.805632,14.43610515,.00019315,86.4509,292.3095,194.4768,165.6378,0,U,43928,999,39836,.76690911E-4,.28E-5,0
IRIDIUM 171,2019-002H,2026-06-13T01:04:46.873344,14.34216604,.0001906,86.3975,355.6095,87.6098,272.5316,0,U,43929,999,38836,-.78828639E-4,-.201E-5,0
IRIDIUM 170,2019-002J,2026-06-13T06:59:01.424544,14.72262785,.00023595,86.6091,355.1733,88.5108,271.6379,0,U,43930,999,39868,.11149548E-3,.728E-5,0
IRIDIUM 167,2019-002K,2026-06-13T05:57:02.874816,14.34217758,.00018602,86.3970,355.2411,88.9355,271.2054,0,U,43931,999,38839,.4787541E-5,.33E-6,0
IRIDIUM 181,2023-068S,2026-06-13T05:22:34.469184,14.43312669,.00023413,86.4501,58.4473,89.4429,270.7040,0,U,56726,999,16186,.79931485E-4,.289E-5,0
IRIDIUM 177,2023-068T,2026-06-13T04:46:22.711872,14.80223389,.00024029,86.1959,330.6861,87.4263,272.7233,0,U,56727,999,16577,.13086367E-3,.1021E-4,0
IRIDIUM 174,2023-068U,2026-06-13T06:41:14.699040,14.72258946,.00025146,86.6098,355.3255,84.5437,275.6067,0,U,56728,999,16544,.11391992E-3,.743E-5,0
IRIDIUM 178,2023-068V,2026-06-13T04:30:43.686432,14.80227461,.00026661,86.6541,27.0317,86.9472,273.2054,0,U,56729,999,16577,.1171575E-3,.916E-5,0
IRIDIUM 179,2023-068W,2026-06-13T02:45:36.813024,14.80231413,.00024424,86.6785,36.0309,90.3938,269.7564,0,U,56730,999,16576,.11548057E-3,.904E-5,0
